LEMUR-2-LEIA-PHILIP     
1 63246U 25052AN  26200.68069477  .00000062  00000+0  10245-4 0  9995
2 63246  97.6792  92.0799 0005043 110.2054 249.9711 14.97392896 73533
LEMUR-2-LIA-MARTIN      
1 63248U 25052AQ  26200.27254357  .00001229  00000+0  10889-3 0  9994
2 63248  97.6853  92.2046 0005046  79.9145 280.2647 14.98043580 73489
LEMUR-2-DELOITTE-1      
1 63259U 25052BB  26200.85492233  .00002366  00000+0  20637-3 0  9992
2 63259  97.6885  93.1078 0002532  58.0669 302.0799 14.97804760 73583
LEMUR-2-EMERSONROSE     
1 63261U 25052BD  26200.26376585  .00002220  00000+0  18657-3 0  9999
2 63261  97.6885  93.1485 0002482  50.6470 309.4973 14.99310415 73542
LEMUR-2-MARACHE-FRAN    
1 63262U 25052BE  26200.68387141  .00001537  00000+0  12728-3 0  9999
2 63262  97.6816  93.9341 0005734 234.6437 125.4251 15.00330612 73635
LEMUR-2-THEFALCONER     
1 63264U 25052BG  26200.68562885  .00001095  00000+0  98723-4 0  9990
2 63264  97.6815  92.5267 0000640 226.4007 133.7162 14.97573199 73559
LEMUR-2-UNTITLED-SC     
1 63351U 25061A   26200.87953666  .00001804  00000+0  10358-3 0  9994
2 63351  97.5661 176.0110 0019631 147.4932 212.7513 15.13663233 72531
LEMUR-2-ESPERANZA       
1 63352U 25061B   26200.78844027  .00001726  00000+0  99031-4 0  9994
2 63352  97.5667 176.0218 0019256 147.1716 213.0716 15.13768965 72523
LEMUR-2-KREMPEL-BRO2    
1 63353U 25061C   26200.74003448  .00001783  00000+0  10091-3 0  9996
2 63353  97.5712 176.5485 0020387 140.2940 219.9788 15.14195662 72530
LEMUR-2-THERMORAPTOR    
1 63354U 25061D   26200.85250280  .00001859  00000+0  10479-3 0  9991
2 63354  97.5719 176.7423 0020106 138.8908 221.3843 15.14279673 72554
LEMUR-2-NEUROSPICY      
1 63355U 25061E   26200.82165178  .00001883  00000+0  10590-3 0  9991
2 63355  97.5647 176.3126 0017868 141.7851 218.4651 15.14398406 72552
LEMUR-2-TILLINFINITY    
1 63356U 25061F   26200.84433904  .00001971  00000+0  10878-3 0  9996
2 63356  97.5631 176.6485 0019366 130.7938 229.4978 15.14983518 72587
LEMUR-2-KREMPEL-BRO1    
1 63357U 25061G   26200.88804064  .00001884  00000+0  10470-3 0  9991
2 63357  97.5633 176.5989 0020022 132.0054 228.2886 15.14789895 72580
LEMUR-2-LANGER2SPACE    
1 63358U 25061H   26200.45861751  .00001802  00000+0  10125-3 0  9998
2 63358  97.5636 175.9728 0017757 141.3528 218.8979 15.14481364 72508
LEMUR-2-BALTO           
1 63395U 25052BH  26200.26792877  .00002106  00000+0  17243-3 0  9996
2 63395  97.6919  93.5170 0004994 310.0792  49.9993 15.00383313 73574
LEMUR-2-KRISH           
1 64561U 25135AK  26200.77413860  .00001978  00000+0  17945-3 0  9997
2 64561  97.7764 315.4353 0001123 105.4516 254.6829 14.96465771 58792
